HELIOS 1B               
1 25977U 99064A   20287.53952963  .00000031  00000-0  10992-4 0  9998
2 25977  98.2958  86.6467 0001115  28.3898 331.7375 14.82499290123919
TERRA                   
1 25994U 99068A   20283.02449370  .00000028  00000-0  16149-4 0  9990
2 25994  98.2035 355.6811 0001499  94.1044 266.0330 14.57114004106859
SL-16 R/B               
1 26070U 00006B   20287.74984673  .00000267  00000-0  16102-3 0  9996
2 26070  71.0007 284.6663 0018503 300.3260  59.6032 14.15467342 69375
MTI                     
1 26102U 00014A   20287.93425835  .00004498  00000-0  64325-4 0  9993
2 26102  97.4879 175.9689 0007943 137.6339 222.5548 15.56771394142943
TITAN 4B R/B            
1 26474U 00047B   20287.92769156  .00000053  00000-0  15491-4 0  9990
2 26474  67.9922 109.5755 0051467  65.0499 295.5978 14.95999464 96963
ENVISAT                 
1 27386U 02009A   20287.98999494  .00000027  00000-0  22436-4 0  9997
2 27386  98.1398 288.8203 0001192  90.3502 322.3972 14.37995049975650
IDEFIX & ARIANE 42P R/B 
1 27422U 02021B   20287.90378907 -.00000008  00000-0  13321-4 0  9997
2 27422  98.3658 244.1438 0011100 238.9634 121.0459 14.29295735962086
AQUA                    
1 27424U 02022A   20288.14806802  .00000073  00000-0  26184-4 0  9999
2 27424  98.1999 227.0339 0001785  25.6981  92.6412 14.57120699981202
CZ-4B R/B               
1 27432U 02024C   20287.80543781 -.00000010  00000-0  18912-4 0  9998
2 27432  99.0916 292.0246 0050064 201.5131 331.6166 14.14097919950372
MIDORI II (ADEOS-II)    
1 27597U 02056A   20287.85674102  .00000025  00000-0  27698-4 0  9998
2 27597  98.5313 232.5252 0001644  47.2777 312.8542 14.27463248928703
H-2A R/B                
1 27601U 02056E   20287.68689267  .00000080  00000-0  43973-4 0  9998
2 27601  98.2164 317.3188 0070922 285.7313 150.0209 14.31973726931618
CZ-4B R/B               
1 28059U 03049C   20287.38701075  .00000011  00000-0  14222-4 0  9997
2 28059  98.4825 205.2249 0050847 137.0162 223.5023 14.52613091899937
CZ-2C R/B               
1 28222U 04012C   20287.70069566  .00000464  00000-0  31650-4 0  9994
2 28222  97.6919 250.6541 0046739 347.4305  69.3711 15.10498125903844
SL-16 R/B               
1 28353U 04021B   20287.75171590  .00000114  00000-0  84810-4 0  9993
2 28353  70.9995  51.2175 0004752 179.1077 181.0054 14.14231313843864
CZ-4B R/B               
1 28415U 04035C   20287.63396879 -.00000163  00000-0 -61835-5 0  9992
2 28415  97.6015 327.8386 0050252 310.7078  48.9789 15.06922103881435
CZ-2C R/B               
1 28480U 04046B   20287.95026735 -.00000003  00000-0  14375-4 0  9990
2 28480  98.0694 313.6588 0140896 233.8940 188.0582 14.25728446827306
ARIANE 5 R/B            
1 28499U 04049H   20287.83805971  .00000034  00000-0  11810-4 0  9991
2 28499  98.0604  30.0231 0090860 250.3798 263.2784 14.80050026853607
CZ-2D R/B               
1 28738U 05024B   20287.77012851  .00000179  00000-0  13978-4 0  9998
2 28738  97.3775 306.3907 0013170 130.1287 230.1100 15.12118778839288
SUZAKU (ASTRO-EII)      
1 28773U 05025A   20287.54043841  .00000930  00000-0  40633-4 0  9999
2 28773  31.3828 328.7357 0004523 315.8474  44.1812 15.17735277841890
ALOS (DAICHI)           
1 28931U 06002A   20287.96390512  .00000125  00000-0  33166-4 0  9996
2 28931  97.8569 267.9573 0002111  74.5300 285.6136 14.62747142785023
H-2A R/B                
1 28932U 06002B   20287.75192706  .00000187  00000-0  23681-4 0  9998
2 28932  98.3300 284.4999 0087391 295.0167 238.7772 14.92308159798789
AKARI (ASTRO-F)         
1 28939U 06005A   20287.92980376  .00002518  00000-0  68079-4 0  9995
2 28939  98.2437 275.7755 0090342 269.5554  89.5335 15.34904301799062
RESURS-DK 1             
1 29228U 06021A   20287.91304427  .00000069  00000-0  12558-4 0  9991
2 29228  69.9349 246.4248 0007843 276.0794  83.9473 15.02576595790546
GENESIS 1               
1 29252U 06029A   20287.71546399  .00000438  00000-0  31251-4 0  9991
2 29252  64.5189 274.7482 0013500  16.3016 343.8539 15.18234546786055
CZ-4B R/B               
1 29507U 06046C   20287.78258090 -.00000356  00000-0 -22576-4 0  9999
2 29507  97.7286 309.2762 0050871 126.0061 234.5894 15.00560935763117
CZ-2C R/B               
1 31114U 07010B   20287.80874680 -.00000070  00000-0 -13724-4 0  9998
2 31114  98.2483 132.6649 0058616 282.4997  76.9627 14.19332542699795
COSMO-SKYMED 1          
1 31598U 07023A   20288.09384424  .00000282  00000-0  41943-4 0  9999
2 31598  97.8879 109.5358 0001421  87.6315 272.5046 14.82155850722405
GENESIS 2               
1 31789U 07028A   20287.47317988  .00000170  00000-0  18780-4 0  9997
2 31789  64.5039 317.3745 0034518 233.2877 126.5074 15.17379518733072
COSMOS 2428             
1 31792U 07029A   20287.98930299 -.00000293  00000-0 -13279-3 0  9999
2 31792  70.9016  23.9775 0010497 260.9062  99.0871 14.12268198685607
SL-16 R/B               
1 31793U 07029B   20287.45322008  .00000006  00000-0  27968-4 0  9996
2 31793  70.9788 358.4872 0002015 272.8065 167.1309 14.14439811686417
KORONAS-FOTON           
1 33504U 09003A   20287.74076925  .00000129  00000-0  50689-5 0  9991
2 33504  82.4388 105.1258 0017901 226.7790 133.1948 15.15719553645302
H-2A R/B                
1 38341U 12025E   20287.70889468  .00000236  00000-0  35197-4 0  9998
2 38341  98.5144  90.4882 0054902 211.0178 148.7789 14.84084282454900
CUSAT 2 & FALCON 9 R/B  
1 39271U 13055G   20287.57618669  .00006914  00000-0  16475-3 0  9999
2 39271  80.9646 139.8466 0583456 174.6133 186.1734 14.49294042367836
SL-4 R/B                
1 39679U 14021B   20287.46208169  .00000483  00000-0  41340-4 0  9998
2 39679  51.6158 279.7413 0171644 354.9241   4.9983 15.06518827357131
ALOS-2                  
1 39766U 14029A   20288.07152952 -.00000186  00000-0 -18090-4 0  9997
2 39766  97.9224  22.9717 0001473  89.4090 270.7280 14.79469512345230
CZ-2C R/B               
1 40306U 14071B   20287.81287268  .00003356  00000-0  71136-4 0  9996
2 40306  97.3360 235.4765 0017290  94.1689 266.1537 15.45656895332126
SL-27 R/B               
1 40354U 14084B   20287.73846428  .00000663  00000-0  17333-4 0  9990
2 40354  74.7366 143.3572 0038691 272.2525  87.4257 15.40411562326348
YAOGAN 29               
1 41038U 15069A   20288.05535685 -.00000003  00000-0  65476-5 0  9991
2 41038  98.0208 275.8912 0000745 111.4782 248.6517 14.80462611263826
ASTRO-H (HITOMI)        
1 41337U 16012A   20287.61772178  .00000250  00000-0  13345-4 0  9993
2 41337  31.0066 340.5311 0012313 159.1560 200.9579 14.98717307255247
SHENZHOU-11 MODULE      
1 41868U 16061G   20280.09605367  .05817383  92395-5  21431-3 0  9991
2 41868  42.7730 152.8530 0009505 273.5415  86.4563 16.43610672223872
HXMT (HUIYAN)           
1 42758U 17034A   20287.96388295  .00000209  00000-0  26682-4 0  9999
2 42758  43.0178 105.8242 0009606  45.9494  84.6549 15.08913456183773
CZ-2C R/B               
1 43521U 18054D   20287.81292342  .00000570  00000-0  33177-4 0  9990
2 43521  35.1525 170.4840 0081705  81.6630 279.3338 15.11115456127068
AEOLUS                  
1 43600U 18066A   20287.98031041  .00027512  00000-0  10761-3 0  9994
2 43600  96.7199 292.5996 0006298 102.6665 257.5312 15.86954683124163
SAOCOM 1A               
1 43641U 18076A   20288.10215950  .00000015  00000-0  84511-5 0  9993
2 43641  97.8896 112.5314 0001454  78.2390 281.8984 14.82150470109177
CREW DRAGON DEMO-1 DEB  
1 44064U 19011B   20287.50023170  .00017989  00000-0  16285-3 0  9996
2 44064  51.6327  73.1002 0002681 150.3276 209.7873 15.68144888 91412
